{
  "type": "FeatureCollection",
  "features": [
    {
      "type": "Feature",
      "properties": {
        "ADMIN": "United States of America",
        "ISO_A3": "USA"
      },
      "geometry": {
        "type": "Polygon",
        "coordinates": [
          [
            [
              -125,
              24
            ],
            [
              -66,
              24
            ],
            [
              -66,
              49
            ],
            [
              -125,
              49
            ],
            [
              -125,
              24
            ]
          ]
        ]
      }
    },
    {
      "type": "Feature",
      "properties": {
        "ADMIN": "France",
        "ISO_A3": "FRA"
      },
      "geometry": {
        "type": "Polygon",
        "coordinates": [
          [
            [
              -5,
              42
            ],
            [
              8,
              42
            ],
            [
              8,
              51
            ],
            [
              -5,
              51
            ],
            [
              -5,
              42
            ]
          ]
        ]
      }
    },
    {
      "type": "Feature",
      "properties": {
        "ADMIN": "Japan",
        "ISO_A3": "JPN"
      },
      "geometry": {
        "type": "Polygon",
        "coordinates": [
          [
            [
              129,
              31
            ],
            [
              146,
              31
            ],
            [
              146,
              45
            ],
            [
              129,
              45
            ],
            [
              129,
              31
            ]
          ]
        ]
      }
    }
  ]
}