{
  "type": "FeatureCollection",
  "features": [
    {
      "type": "Feature",
      "properties": {
        "from-city": "MSU-TX",
        "to-city": "El Tarter",
        "stroke": "#ff0000"
      },
      "geometry": {
        "coordinates": [
          [
            -98.5316,
            33.8903
          ],
          [
            1.65362,
            42.57952
          ]
        ],
        "type": "LineString"
      }
    },
    {
      "type": "Feature",
      "properties": {
        "from-city": "MSU-TX",
        "to-city": "Paris",
        "stroke": "#00ffff"
      },
      "geometry": {
        "coordinates": [
          [
            -98.5316,
            33.8903
          ],
          [
            2.3488,
            48.85341
          ]
        ],
        "type": "LineString"
      }
    },
    {
      "type": "Feature",
      "properties": {
        "from-city": "MSU-TX",
        "to-city": "Sant Julia de Loria",
        "stroke": "#0000ff"
      },
      "geometry": {
        "coordinates": [
          [
            -98.5316,
            33.8903
          ],
          [
            1.49129,
            42.46372
          ]
        ],
        "type": "LineString"
      }
    },
    {
      "type": "Feature",
      "properties": {
        "from-city": "MSU-TX",
        "to-city": "Pas de la Casa",
        "stroke": "#00ff00"
      },
      "geometry": {
        "coordinates": [
          [
            -98.5316,
            33.8903
          ],
          [
            -1.73361,
            42.54277
          ]
        ],
        "type": "LineString"
      }
    },
    {
      "type": "Feature",
      "properties": {
        "from-city": "MSU-TX",
        "to-city": "MSU-TX",
        "stroke": "#ff00ff"
      },
      "geometry": {
        "coordinates": [
          [
            -98.5316,
            33.8903
          ],
          [
            -98.5316,
            33.8903
          ]
        ],
        "type": "LineString"
      }
    }
  ]
}