{"type":"FeatureCollection","features":[{"type":"Feature","properties":{"name":"Route Line","description":"The main path","marker-color":"#00ff00"},"geometry":{"type":"LineString","coordinates":[[-98.52071710434129,33.8709743595124],[-98.52034999838658,33.87097690312581],[-98.52035586153114,33.87043897220988],[-98.52458905179229,33.87049252204555],[-98.52764703103693,33.87052477200068],[-98.5285437930878,33.870549454231025],[-98.52868747319546,33.87027383558595],[-98.52886088211557,33.87027383511602],[-98.52890547249373,33.869636206481985],[-98.52906401606077,33.86965266147408],[-98.52904915260137,33.87008871761621],[-98.52918787822244,33.87009283134286]]}},{"type":"Feature","properties":{"name":"Start Point","marker-color":"#00ff00"},"geometry":{"type":"Point","coordinates":[-98.52071710434129,33.8709743595124]}},{"type":"Feature","properties":{"name":"End Point","marker-color":"#ff0000","marker-symbol":"restaurant"},"geometry":{"type":"Point","coordinates":[-98.52918787822244,33.87009283134286]},"id":2}]}