{
  "type": "FeatureCollection",
  "features": [
    {
      "type": "Feature",
      "geometry": {
        "type": "LineString",
        "coordinates": [
          [
            -98.53637695312501,
            33.90262135829932
          ],
          [
            -98.5188674926758,
            33.91857725200028
          ],
          [
            -98.49586486816408,
            33.915443294345756
          ],
          [
            -98.50822448730469,
            33.88694748406902
          ]
        ]
      },
      "properties": {
        "index": 1
      }
    },
    {
      "type": "Feature",
      "geometry": {
        "type": "LineString",
        "coordinates": [
          [
            -98.53637695312501,
            33.90262135829932
          ],
          [
            -98.5188674926758,
            33.91857725200028
          ],
          [
            -98.49586486816408,
            33.915443294345756
          ],
          [
            -98.50822448730469,
            33.88694748406902
          ]
        ]
      },
      "properties": {
        "index": 2
      }
    },
    {
      "type": "Feature",
      "geometry": {
        "type": "LineString",
        "coordinates": [
          [
            -98.53637695312501,
            33.90262135829932
          ],
          [
            -98.5188674926758,
            33.91857725200028
          ],
          [
            -98.49586486816408,
            33.915443294345756
          ],
          [
            -98.50822448730469,
            33.88694748406902
          ]
        ]
      },
      "properties": {
        "index": 3
      }
    },
    {
      "type": "Feature",
      "geometry": {
        "type": "LineString",
        "coordinates": [
          [
            -98.53637695312501,
            33.90262135829932
          ],
          [
            -98.5188674926758,
            33.91857725200028
          ],
          [
            -98.49586486816408,
            33.915443294345756
          ],
          [
            -98.50822448730469,
            33.88694748406902
          ]
        ]
      },
      "properties": {
        "index": 4
      }
    }
  ]
}